[
    {
        "Altitude(m)": 622200.1297914906,
        "Argument of Periapsis(deg)": 0.0,
        "Eccentricity": 0.0,
        "Inclination(deg)": 60.0,
        "Latitude(deg)": -52.162600577405975,
        "Longitude(deg)": -147.63936287814863,
        "Mean Anomaly(deg)": 294.5455,
        "RAAN(deg)": 0.0,
        "Satellite Name": "Test1 18",
        "Satellite Number": 18,
        "Semi-Major Axis(m)": 6980739.136638005,
        "Time(s)": 0
    },
    {
        "Altitude(m)": 622058.2980486472,
        "Argument of Periapsis(deg)": 0.00010418945913296404,
        "Eccentricity": 0.0,
        "Inclination(deg)": 60.0,
        "Latitude(deg)": -51.79935143699238,
        "Longitude(deg)": -146.87130242890905,
        "Mean Anomaly(deg)": 295.1656061454619,
        "RAAN(deg)": -0.0004200491397426661,
        "Satellite Name": "Test1 18",
        "Satellite Number": 18,
        "Semi-Major Axis(m)": 6980739.136638005,
        "Time(s)": 10
    }
]